H1 CPF  1  DLR 2021 10 05 10  7782 technosat            
H2  1704205 6203    42829 2021 10 05 00 00 00 2021 10 12 00 00 00    60 1 1  0 0 0
H9
10 0 59493  50400.000000  0       -950589.152        309859.472       6883779.041
10 0 59493  50460.000000  0      -1002029.017        763117.035       6840688.904
10 0 59493  50520.000000  0      -1045285.044       1213567.442       6768512.962
10 0 59493  50580.000000  0      -1080206.853       1659235.686       6667551.278
10 0 59493  50640.000000  0      -1106696.327       2098164.910       6538226.197
10 0 59493  50700.000000  0      -1124707.845       2528425.093       6381080.707
10 0 59493  50760.000000  0      -1134248.267       2948121.660       6196776.363
10 0 59493  50820.000000  0      -1135376.620       3355404.041       5986090.663
10 0 59493  50880.000000  0      -1128203.449       3748474.011       5749913.882
10 0 59493  50940.000000  0      -1112889.876       4125593.822       5489245.515
10 0 59493  51000.000000  0      -1089646.405       4485094.183       5205190.229
10 0 59493  51060.000000  0      -1058731.485       4825381.983       4898953.313
10 0 59493  51120.000000  0      -1020449.764       5144947.733       4571835.618
10 0 59493  51180.000000  0       -975150.017       5442372.587       4225227.984
10 0 59493  51240.000000  0       -923222.850       5716334.844       3860605.338
10 0 59493  51300.000000  0       -865098.239       5965616.161       3479520.568
10 0 59493  51360.000000  0       -801242.867       6189107.503       3083597.898
10 0 59493  51420.000000  0       -732157.170       6385814.566       2674525.683
10 0 59493  51480.000000  0       -658372.086       6554862.394       2254048.855
10 0 59493  51540.000000  0       -580445.689       6695499.461       1823961.317
10 0 59493  51600.000000  0       -498959.687       6807101.262       1386098.012
10 0 59493  51660.000000  0       -414515.754       6889173.208        942326.779
10 0 59493  51720.000000  0       -327731.755       6941352.900        494540.097
10 0 59493  51780.000000  0       -239237.897       6963411.806         44646.693
10 0 59493  51840.000000  0       -149672.790       6955256.279       -405436.990
10 0 59493  51900.000000  0        -59679.456       6916927.817       -853795.377
10 0 59493  51960.000000  0         30098.640       6848602.579      -1298522.262
10 0 59493  52020.000000  0        119021.504       6750590.247      -1737729.176
10 0 59493  52080.000000  0        206456.490       6623332.274      -2169553.605
10 0 59493  52140.000000  0        291782.134       6467399.545      -2592167.046
10 0 59493  52200.000000  0        374391.908       6283489.436      -3003782.869
10 0 59493  52260.000000  0        453697.875       6072422.268      -3402663.951
10 0 59493  52320.000000  0        529134.218       5835137.191      -3787130.028
10 0 59493  52380.000000  0        600160.617       5572687.537      -4155564.704
10 0 59493  52440.000000  0        666265.467       5286235.675      -4506422.142
10 0 59493  52500.000000  0        726968.905       4977047.407      -4838233.342
10 0 59493  52560.000000  0        781825.649       4646485.964      -5149612.037
10 0 59493  52620.000000  0        830427.624       4296005.614      -5439260.187
10 0 59493  52680.000000  0        872406.340       3927144.941      -5705973.042
10 0 59493  52740.000000  0        907435.026       3541519.805      -5948643.804
10 0 59493  52800.000000  0        935230.537       3140816.009      -6166267.811
10 0 59493  52860.000000  0        955555.029       2726781.768      -6357946.246
10 0 59493  52920.000000  0        968217.363       2301219.995      -6522889.377
10 0 59493  52980.000000  0        973074.251       1865980.503      -6660419.382
10 0 59493  53040.000000  0        970031.143       1422952.037      -6769972.824
10 0 59493  53100.000000  0        959042.838        974054.137      -6851102.606
10 0 59493  53160.000000  0        940113.863        521229.011      -6903479.479
10 0 59493  53220.000000  0        913298.594         66433.317      -6926893.170
10 0 59493  53280.000000  0        878701.066       -388370.119      -6921253.001
10 0 59493  53340.000000  0        836474.530       -841220.484      -6886588.031
10 0 59493  53400.000000  0        786820.783      -1290167.120      -6823046.833
10 0 59493  53460.000000  0        729989.239      -1733277.604      -6730896.837
10 0 59493  53520.000000  0        666275.762      -2168645.703      -6610523.322
10 0 59493  53580.000000  0        596021.248      -2594399.352      -6462428.091
10 0 59493  53640.000000  0        519609.908      -3008708.606      -6287227.609
10 0 59493  53700.000000  0        437467.308      -3409793.375      -6085650.607
10 0 59493  53760.000000  0        350058.231      -3795930.920      -5858535.293
10 0 59493  53820.000000  0        257884.320      -4165463.153      -5606826.200
10 0 59493  53880.000000  0        161481.497      -4516803.747      -5331570.630
10 0 59493  53940.000000  0         61417.144      -4848445.003      -5033914.667
10 0 59493  54000.000000  0        -41712.905      -5158964.435      -4715098.777
10 0 59493  54060.000000  0       -147287.563      -5447031.057      -4376452.992
10 0 59493  54120.000000  0       -254663.853      -5711411.312      -4019391.675
10 0 59493  54180.000000  0       -363180.425      -5950974.602      -3645407.903
10 0 59493  54240.000000  0       -472161.212      -6164698.396      -3256067.494
10 0 59493  54300.000000  0       -580919.225      -6351672.914      -2853002.714
10 0 59493  54360.000000  0       -688760.432      -6511105.390      -2437905.638
10 0 59493  54420.000000  0       -794987.734      -6642323.820      -2012521.138
10 0 59493  54480.000000  0       -898904.979      -6744780.140      -1578639.588
10 0 59493  54540.000000  0       -999821.020      -6818052.846      -1138089.353
10 0 59493  54600.000000  0      -1097053.785      -6861849.042       -692729.031
10 0 59493  54660.000000  0      -1189934.322      -6876005.870       -244439.539
10 0 59493  54720.000000  0      -1277810.822      -6860491.350        204883.922
10 0 59493  54780.000000  0      -1360052.586      -6815404.621        653340.018
10 0 59493  54840.000000  0      -1436053.909      -6740975.547       1099029.511
10 0 59493  54900.000000  0      -1505237.848      -6637563.689       1540063.497
10 0 59493  54960.000000  0      -1567059.844      -6505656.658       1974571.640
10 0 59493  55020.000000  0      -1621011.185      -6345867.827       2400710.319
10 0 59493  55080.000000  0      -1666622.291      -6158933.431       2816670.655
10 0 59493  55140.000000  0      -1703465.803      -5945709.101       3220686.375
10 0 59493  55200.000000  0      -1731159.417      -5707165.815       3611041.485
10 0 59493  55260.000000  0      -1749368.465      -5444385.300       3986077.679
10 0 59493  55320.000000  0      -1757808.275      -5158554.953       4344201.433
10 0 59493  55380.000000  0      -1756246.274      -4850962.339       4683890.821
10 0 59493  55440.000000  0      -1744503.839      -4522989.244       5003702.055
10 0 59493  55500.000000  0      -1722457.852      -4176105.285       5302275.703
10 0 59493  55560.000000  0      -1690041.946      -3811861.055       5578342.506
10 0 59493  55620.000000  0      -1647247.424      -3431880.940       5830728.692
10 0 59493  55680.000000  0      -1594123.857      -3037855.692       6058360.861
10 0 59493  55740.000000  0      -1530779.382      -2631534.773       6260270.436
10 0 59493  55800.000000  0      -1457380.690      -2214718.516       6435597.674
10 0 59493  55860.000000  0      -1374152.738      -1789250.089       6583595.300
10 0 59493  55920.000000  0      -1281378.153      -1357007.228       6703631.661
10 0 59493  55980.000000  0      -1179396.350       -919893.828       6795193.345
10 0 59493  56040.000000  0      -1068602.351       -479831.497       6857887.276
10 0 59493  56100.000000  0       -949445.296        -38751.130       6891442.387
10 0 59493  56160.000000  0       -822426.633        401415.600       6895710.872
10 0 59493  56220.000000  0       -688098.010        838744.792       6870668.901
10 0 59493  56280.000000  0       -547058.871       1271328.789       6816416.796
10 0 59493  56340.000000  0       -399953.794       1697284.567       6733178.728
10 0 59493  56400.000000  0       -247469.541       2114762.049       6621301.909
10 0 59493  56460.000000  0        -90331.862       2521952.226       6481255.233
10 0 59493  56520.000000  0         70697.921       2917095.078       6313627.487
10 0 59493  56580.000000  0        234826.551       3298487.382       6119125.083
10 0 59493  56640.000000  0        401232.693       3664490.264       5898569.223
10 0 59493  56700.000000  0        569070.999       4013536.467       5652892.589
10 0 59493  56760.000000  0        737476.352       4344137.282       5383135.565
10 0 59493  56820.000000  0        905568.288       4654889.215       5090441.996
10 0 59493  56880.000000  0       1072455.558       4944480.290       4776054.400
10 0 59493  56940.000000  0       1237240.766       5211695.857       4441308.693
10 0 59493  57000.000000  0       1399025.061       5455423.940       4087628.625
10 0 59493  57060.000000  0       1556912.909       5674660.188       3716519.883
10 0 59493  57120.000000  0       1710017.159       5868512.580       3329563.754
10 0 59493  57180.000000  0       1857464.001       6036205.380       2928409.935
10 0 59493  57240.000000  0       1998397.625       6177082.367       2514769.319
10 0 59493  57300.000000  0       2131985.051       6290609.720       2090406.589
10 0 59493  57360.000000  0       2257420.910       6376378.228       1657132.325
10 0 59493  57420.000000  0       2373932.029       6434104.750       1216794.919
10 0 59493  57480.000000  0       2480781.854       6463633.084        771272.403
10 0 59493  57540.000000  0       2577274.718       6464934.250        322464.132
99
